ONEWEB-0093             
1 45444U 20020W   20358.25002315 -.00056976  00000-0 -15193+0 0  9994
2 45444  87.9013  59.1107 0029009  68.8823 186.7873 13.15579452 40308
ONEWEB-0029             
1 45445U 20020X   20358.25002315 -.00032579  00000-0 -80749-1 0  9999
2 45445  87.9207  59.0877 0028928  70.9453 222.7539 13.20372464 40275
ONEWEB-0068             
1 45446U 20020Y   20357.91667824 -.00010719  00000-0 -30315-1 0  9990
2 45446  87.8895  59.1703 0010540  81.1006  73.5042 13.11398168 40175
ONEWEB-0046             
1 45447U 20020Z   20358.25002315 -.00031809  00000-0 -90058-1 0  9990
2 45447  87.8874  59.1094 0001501  90.3964 212.4167 13.11445542 40236
ONEWEB-0063             
1 45448U 20020AA  20358.25002315  .00000013  00000-0  00000+0 0  9998
2 45448  87.9087  59.1226 0030759  71.7407   8.0223 13.17319615 40300
ONEWEB-0019             
1 45449U 20020AB  20358.25002315 -.00032350  00000-0 -90352-1 0  9991
2 45449  87.8900  59.0733 0026945  78.4649 198.8304 13.12260594 40168
ONEWEB-0094             
1 45450U 20020AC  20358.25002315 -.00053424  00000-0 -54765-2 0  9997
2 45450  87.5783  51.7675 0027856  26.5475 241.2205 14.90557560 41302
ONEWEB-0087             
1 45451U 20020AD  20358.25002315  .00000013  00000-0  00000+0 0  9992
2 45451  87.9094  59.0995 0027633  80.7793 347.1551 13.18046597 40206
ONEWEB-0082             
1 45452U 20020AE  20358.25002315  .00000013  00000-0  00000+0 0  9993
2 45452  87.8962  59.0725 0029709  77.9770 354.5217 13.13141704 40291
ONEWEB-0050             
1 45453U 20020AF  20358.25002315 -.00052791  00000-0 -48584-2 0  9998
2 45453  87.5431  50.9057 0026832  23.2217  57.4072 14.94850906 41427
ONEWEB-0034             
1 45454U 20020AG  20357.91667824 -.00009008  00000-0 -25467-1 0  9990
2 45454  87.8875  59.1689 0007262  86.9455 140.8023 13.11433448 40160
ONEWEB-0060             
1 45455U 20020AH  20357.91667824 -.00011835  00000-0 -32392-1 0  9997
2 45455  87.8822  59.1675 0024846  85.3408 104.7494 13.13563853 40129
ONEWEB-0086             
1 45456U 20020AJ  20358.25002315  .00000013  00000-0  00000+0 0  9997
2 45456  87.8942  59.0854 0024099  78.6450 189.1913 13.13619680 40216
ONEWEB-0088             
1 45457U 20020AK  20358.25002315  .00000013  00000-0  00000+0 0  9998
2 45457  87.8873  59.1296 0024603  82.6033 272.1885 13.10604625 40169
ONEWEB-0102             
1 47258U 20100A   20358.16667824 -.00025731  00000-0 -63715-3 0  9992
2 47258  87.4014  38.0356 0005359 279.5896 323.0559 15.40592989   712
ONEWEB-0109             
1 47259U 20100B   20358.16667824 -.00026204  00000-0 -71223-3 0  9992
2 47259  87.3982  38.0426 0005051 270.6581 285.5777 15.37737592   717
ONEWEB-0110             
1 47260U 20100C   20358.16667824 -.00025780  00000-0 -64074-3 0  9998
2 47260  87.3985  38.0375 0004908 278.2341 322.6369 15.40483630   718
ONEWEB-0111             
1 47261U 20100D   20358.16667824 -.00026124  00000-0 -70744-3 0  9993
2 47261  87.3991  38.0426 0005109 282.0828 276.0047 15.37852092   713
ONEWEB-0114             
1 47262U 20100E   20358.16667824 -.00026190  00000-0 -72029-3 0  9995
2 47262  87.3993  38.0450 0005655 254.9381 295.3739 15.37368926   711
ONEWEB-0117             
1 47263U 20100F   20358.16667824 -.00026151  00000-0 -69572-3 0  9992
2 47263  87.3982  38.0403 0007572 283.7983 282.8594 15.38382984   717
ONEWEB-0118             
1 47264U 20100G   20358.16667824 -.00022850  00000-0 -55028-3 0  9996
2 47264  87.3989  38.0318 0008599 265.5570 350.4342 15.41406914   717
ONEWEB-0119             
1 47265U 20100H   20358.16667824 -.00026114  00000-0 -67756-3 0  9995
2 47265  87.3964  38.0388 0008452 261.7038 317.3193 15.39144416   712
ONEWEB-0120             
1 47266U 20100J   20358.16667824 -.00023212  00000-0 -57216-3 0  9992
2 47266  87.3995  38.0363 0005915 280.6273 324.1561 15.40724922   715
ONEWEB-0121             
1 47267U 20100K   20358.16667824 -.00026008  00000-0 -68365-3 0  9996
2 47267  87.3997  38.0415 0008564 275.1883 297.3376 15.38743764   712
ONEWEB-0122             
1 47268U 20100L   20358.16667824 -.00026143  00000-0 -71365-3 0  9991
2 47268  87.4007  38.0461 0005203 265.0487 289.0281 15.37603063   711
ONEWEB-0123             
1 47269U 20100M   20358.16667824 -.00023359  00000-0 -58302-3 0  9994
2 47269  87.4004  38.0368 0004350 276.6843 322.0178 15.40353709   717
ONEWEB-0124             
1 47270U 20100N   20358.16667824 -.00025633  00000-0 -65025-3 0  9993
2 47270  87.3997  38.0376 0005801 248.0611 342.5216 15.39855043   712
ONEWEB-0125             
1 47271U 20100P   20358.16667824 -.00026754  00000-0 -73284-3 0  9995
2 47271  87.3968  38.0415 0005404 260.0608 292.3163 15.37496800   717
ONEWEB-0126             
1 47272U 20100Q   20358.16667824 -.00025990  00000-0 -66188-3 0  9992
2 47272  87.3993  38.0406 0006322 249.1037 339.4838 15.39733102   713
ONEWEB-0127             
1 47273U 20100R   20358.16667824 -.00025520  00000-0 -61768-3 0  9991
2 47273  87.4014  38.0375 0008207 268.6801 344.9819 15.41262767   710
ONEWEB-0128             
1 47274U 20100S   20358.16667824 -.00022513  00000-0 -52600-3 0  9996
2 47274  87.4008  38.0329 0009020 236.3624  34.5872 15.42314564   717
ONEWEB-0129             
1 47275U 20100T   20358.16667824 -.00025227  00000-0 -66555-3 0  9996
2 47275  87.3975  38.0382 0008231 277.3678 293.3233 15.38632801   703
ONEWEB-0130             
1 47276U 20100U   20358.16667824 -.00025932  00000-0 -65469-3 0  9993
2 47276  87.4007  38.0388 0004844 251.1295 341.9542 15.40007271   701
ONEWEB-0131             
1 47277U 20100V   20358.16667824 -.00023327  00000-0 -58194-3 0  9997
2 47277  87.3991  38.0363 0004418 269.6328 329.3150 15.40368319   702
ONEWEB-0132             
1 47278U 20100W   20358.16667824 -.00026405  00000-0 -71228-3 0  9991
2 47278  87.3967  38.0430 0005593 283.5285 276.4582 15.37969622   704
ONEWEB-0133             
1 47279U 20100X   20358.16667824 -.00022790  00000-0 -54676-3 0  9993
2 47279  87.4006  38.0352 0008950 263.4161 354.3922 15.41517614   702
ONEWEB-0134             
1 47280U 20100Y   20358.16667824 -.00022950  00000-0 -55740-3 0  9996
2 47280  87.3997  38.0340 0007891 271.2107 340.6675 15.41157259   707
ONEWEB-0135             
1 47281U 20100Z   20358.16667824 -.00022552  00000-0 -52878-3 0  9994
2 47281  87.3980  38.0323 0009050 239.2770  29.8975 15.42207563   704
ONEWEB-0136             
1 47282U 20100AA  20358.16667824 -.00023426  00000-0 -58913-3 0  9992
2 47282  87.3978  38.0355 0004680 256.5442 338.3532 15.40122074   707
ONEWEB-0137             
1 47283U 20100AB  20358.16667824 -.00023845  00000-0 -61187-3 0  9995
2 47283  87.3995  38.0398 0007347 250.4958 334.1370 15.39489968   702
ONEWEB-0138             
1 47284U 20100AC  20358.16667824 -.00026132  00000-0 -68338-3 0  9993
2 47284  87.3978  38.0398 0008820 268.3826 306.6111 15.38899407   702
ONEWEB-0139             
1 47285U 20100AD  20358.16667824 -.00022584  00000-0 -53185-3 0  9995
2 47285  87.4021  38.0339 0009121 242.7788  24.2439 15.42076220   707
ONEWEB-0140             
1 47286U 20100AE  20358.16667824 -.00026156  00000-0 -69971-3 0  9995
2 47286  87.3978  38.0421 0006627 286.2454 277.7762 15.38220163   707
ONEWEB-0141             
1 47287U 20100AF  20358.16667824 -.00023734  00000-0 -61336-3 0  9992
2 47287  87.3994  38.0397 0008289 258.4696 322.4490 15.39263799   702
ONEWEB-0142             
1 47288U 20100AG  20358.16667824 -.00023381  00000-0 -58536-3 0  9999
2 47288  87.4019  38.0395 0004475 263.6238 333.5394 15.40260602   701
ONEWEB-0143             
1 47289U 20100AH  20358.16667824 -.00023937  00000-0 -63432-3 0  9998
2 47289  87.3995  38.0436 0007873 280.9446 287.5375 15.38498003   700
ONEWEB-0144             
1 47290U 20100AJ  20358.16667824 -.00026164  00000-0 -70263-3 0  9995
2 47290  87.4001  38.0417 0006130 285.2662 276.8625 15.38103447   707
ONEWEB-0145             
1 47291U 20100AK  20358.16667824 -.00022608  00000-0 -53432-3 0  9994
2 47291  87.3993  38.0332 0009208 245.6247  19.6098 15.41967746   702
ONEWEB-0146             
1 47292U 20100AL  20358.16667824 -.00026021  00000-0 -67812-3 0  9995
2 47292  87.4008  38.0410 0008607 265.5247 311.2906 15.39008314   704
ONEWEB-0147             
1 47293U 20100AM  20358.16667824 -.00026035  00000-0 -66548-3 0  9996
2 47293  87.3999  38.0368 0006821 249.7018 336.9877 15.39616744   704
